ONEWEB-0331             
1 49198U 21083N   25028.41797138  .00000071  00000+0  14735-3 0  9992
2 49198  87.9068  75.8638 0001886  87.8832 272.2516 13.18685209163487
ONEWEB-0333             
1 49199U 21083P   25029.07335138  .00000399  00000+0  10583-2 0  9993
2 49199  87.8886  60.4996 0001856  97.6812 262.4528 13.13469920166028
ONEWEB-0334             
1 49200U 21083Q   25028.72148322 -.00000012  00000+0 -61875-4 0  9990
2 49200  87.9257  14.8331 0001708 117.4136 242.7172 13.20771332170208
ONEWEB-0335             
1 49201U 21083R   25028.38299292  .00000339  00000+0  89392-3 0  9999
2 49201  87.8887  60.6262 0001722  86.2333 273.8992 13.13469388165944
ONEWEB-0336             
1 49202U 21083S   25029.11460957 -.00000243  00000+0 -69973-3 0  9999
2 49202  87.8884  60.4738 0001679  95.8589 264.2732 13.13470700166046
ONEWEB-0337             
1 49203U 21083T   25029.12399748 -.00000019  00000+0 -86269-4 0  9999
2 49203  87.8885  60.4708 0001955  90.0612 270.0741 13.13470751166047
ONEWEB-0338             
1 49204U 21083U   25029.03161217  .00000004  00000+0 -22741-4 0  9996
2 49204  87.9262  14.7683 0001912  98.4273 261.7078 13.20772158171567
ONEWEB-0339             
1 49205U 21083V   25029.13524589  .00000258  00000+0  67095-3 0  9993
2 49205  87.8885  60.4599 0002006  93.7751 266.3608 13.13470609166029
