<?xml version="1.0" encoding="UTF-8"?>
<ndm xmlns:xsi="http://www.w3.org/2001/XMLSchema-instance" xsi:noNamespaceSchemaLocation="https://sanaregistry.org/r/ndmxml_unqualified/ndmxml-2.0.0-master-2.0.xsd">
<omm id="CCSDS_OMM_VERS" version="2.0">
<header><CREATION_DATE/><ORIGINATOR/></header><body><segment><metadata><OBJECT_NAME>ONEWEB-0331</OBJECT_NAME><OBJECT_ID>2021-083N</OBJECT_ID><CENTER_NAME>EARTH</CENTER_NAME><REF_FRAME>TEME</REF_FRAME><TIME_SYSTEM>UTC</TIME_SYSTEM><MEAN_ELEMENT_THEORY>SGP4</MEAN_ELEMENT_THEORY></metadata><data><meanElements><EPOCH>2025-01-28T10:01:52.727232</EPOCH><MEAN_MOTION>13.18685209</MEAN_MOTION><ECCENTRICITY>.0001886</ECCENTRICITY><INCLINATION>87.9068</INCLINATION><RA_OF_ASC_NODE>75.8638</RA_OF_ASC_NODE><ARG_OF_PERICENTER>87.8832</ARG_OF_PERICENTER><MEAN_ANOMALY>272.2516</MEAN_ANOMALY></meanElements><tleParameters><EPHEMERIS_TYPE>0</EPHEMERIS_TYPE><CLASSIFICATION_TYPE>U</CLASSIFICATION_TYPE><NORAD_CAT_ID>49198</NORAD_CAT_ID><ELEMENT_SET_NO>999</ELEMENT_SET_NO><REV_AT_EPOCH>16348</REV_AT_EPOCH><BSTAR>.14735E-3</BSTAR><MEAN_MOTION_DOT>.71E-6</MEAN_MOTION_DOT><MEAN_MOTION_DDOT>0</MEAN_MOTION_DDOT></tleParameters></data></segment></body></omm>
<omm id="CCSDS_OMM_VERS" version="2.0">
<header><CREATION_DATE/><ORIGINATOR/></header><body><segment><metadata><OBJECT_NAME>ONEWEB-0333</OBJECT_NAME><OBJECT_ID>2021-083P</OBJECT_ID><CENTER_NAME>EARTH</CENTER_NAME><REF_FRAME>TEME</REF_FRAME><TIME_SYSTEM>UTC</TIME_SYSTEM><MEAN_ELEMENT_THEORY>SGP4</MEAN_ELEMENT_THEORY></metadata><data><meanElements><EPOCH>2025-01-29T01:45:37.559232</EPOCH><MEAN_MOTION>13.13469920</MEAN_MOTION><ECCENTRICITY>.0001856</ECCENTRICITY><INCLINATION>87.8886</INCLINATION><RA_OF_ASC_NODE>60.4996</RA_OF_ASC_NODE><ARG_OF_PERICENTER>97.6812</ARG_OF_PERICENTER><MEAN_ANOMALY>262.4528</MEAN_ANOMALY></meanElements><tleParameters><EPHEMERIS_TYPE>0</EPHEMERIS_TYPE><CLASSIFICATION_TYPE>U</CLASSIFICATION_TYPE><NORAD_CAT_ID>49199</NORAD_CAT_ID><ELEMENT_SET_NO>999</ELEMENT_SET_NO><REV_AT_EPOCH>16602</REV_AT_EPOCH><BSTAR>.10583E-2</BSTAR><MEAN_MOTION_DOT>.399E-5</MEAN_MOTION_DOT><MEAN_MOTION_DDOT>0</MEAN_MOTION_DDOT></tleParameters></data></segment></body></omm>
<omm id="CCSDS_OMM_VERS" version="2.0">
<header><CREATION_DATE/><ORIGINATOR/></header><body><segment><metadata><OBJECT_NAME>ONEWEB-0334</OBJECT_NAME><OBJECT_ID>2021-083Q</OBJECT_ID><CENTER_NAME>EARTH</CENTER_NAME><REF_FRAME>TEME</REF_FRAME><TIME_SYSTEM>UTC</TIME_SYSTEM><MEAN_ELEMENT_THEORY>SGP4</MEAN_ELEMENT_THEORY></metadata><data><meanElements><EPOCH>2025-01-28T17:18:56.150208</EPOCH><MEAN_MOTION>13.20771332</MEAN_MOTION><ECCENTRICITY>.0001708</ECCENTRICITY><INCLINATION>87.9257</INCLINATION><RA_OF_ASC_NODE>14.8331</RA_OF_ASC_NODE><ARG_OF_PERICENTER>117.4136</ARG_OF_PERICENTER><MEAN_ANOMALY>242.7172</MEAN_ANOMALY></meanElements><tleParameters><EPHEMERIS_TYPE>0</EPHEMERIS_TYPE><CLASSIFICATION_TYPE>U</CLASSIFICATION_TYPE><NORAD_CAT_ID>49200</NORAD_CAT_ID><ELEMENT_SET_NO>999</ELEMENT_SET_NO><REV_AT_EPOCH>17020</REV_AT_EPOCH><BSTAR>-.61875E-4</BSTAR><MEAN_MOTION_DOT>-.12E-6</MEAN_MOTION_DOT><MEAN_MOTION_DDOT>0</MEAN_MOTION_DDOT></tleParameters></data></segment></body></omm>
<omm id="CCSDS_OMM_VERS" version="2.0">
<header><CREATION_DATE/><ORIGINATOR/></header><body><segment><metadata><OBJECT_NAME>ONEWEB-0335</OBJECT_NAME><OBJECT_ID>2021-083R</OBJECT_ID><CENTER_NAME>EARTH</CENTER_NAME><REF_FRAME>TEME</REF_FRAME><TIME_SYSTEM>UTC</TIME_SYSTEM><MEAN_ELEMENT_THEORY>SGP4</MEAN_ELEMENT_THEORY></metadata><data><meanElements><EPOCH>2025-01-28T09:11:30.588288</EPOCH><MEAN_MOTION>13.13469388</MEAN_MOTION><ECCENTRICITY>.0001722</ECCENTRICITY><INCLINATION>87.8887</INCLINATION><RA_OF_ASC_NODE>60.6262</RA_OF_ASC_NODE><ARG_OF_PERICENTER>86.2333</ARG_OF_PERICENTER><MEAN_ANOMALY>273.8992</MEAN_ANOMALY></meanElements><tleParameters><EPHEMERIS_TYPE>0</EPHEMERIS_TYPE><CLASSIFICATION_TYPE>U</CLASSIFICATION_TYPE><NORAD_CAT_ID>49201</NORAD_CAT_ID><ELEMENT_SET_NO>999</ELEMENT_SET_NO><REV_AT_EPOCH>16594</REV_AT_EPOCH><BSTAR>.89392E-3</BSTAR><MEAN_MOTION_DOT>.339E-5</MEAN_MOTION_DOT><MEAN_MOTION_DDOT>0</MEAN_MOTION_DDOT></tleParameters></data></segment></body></omm>
<omm id="CCSDS_OMM_VERS" version="2.0">
<header><CREATION_DATE/><ORIGINATOR/></header><body><segment><metadata><OBJECT_NAME>ONEWEB-0336</OBJECT_NAME><OBJECT_ID>2021-083S</OBJECT_ID><CENTER_NAME>EARTH</CENTER_NAME><REF_FRAME>TEME</REF_FRAME><TIME_SYSTEM>UTC</TIME_SYSTEM><MEAN_ELEMENT_THEORY>SGP4</MEAN_ELEMENT_THEORY></metadata><data><meanElements><EPOCH>2025-01-29T02:45:02.266848</EPOCH><MEAN_MOTION>13.13470700</MEAN_MOTION><ECCENTRICITY>.0001679</ECCENTRICITY><INCLINATION>87.8884</INCLINATION><RA_OF_ASC_NODE>60.4738</RA_OF_ASC_NODE><ARG_OF_PERICENTER>95.8589</ARG_OF_PERICENTER><MEAN_ANOMALY>264.2732</MEAN_ANOMALY></meanElements><tleParameters><EPHEMERIS_TYPE>0</EPHEMERIS_TYPE><CLASSIFICATION_TYPE>U</CLASSIFICATION_TYPE><NORAD_CAT_ID>49202</NORAD_CAT_ID><ELEMENT_SET_NO>999</ELEMENT_SET_NO><REV_AT_EPOCH>16604</REV_AT_EPOCH><BSTAR>-.69973E-3</BSTAR><MEAN_MOTION_DOT>-.243E-5</MEAN_MOTION_DOT><MEAN_MOTION_DDOT>0</MEAN_MOTION_DDOT></tleParameters></data></segment></body></omm>
<omm id="CCSDS_OMM_VERS" version="2.0">
<header><CREATION_DATE/><ORIGINATOR/></header><body><segment><metadata><OBJECT_NAME>ONEWEB-0337</OBJECT_NAME><OBJECT_ID>2021-083T</OBJECT_ID><CENTER_NAME>EARTH</CENTER_NAME><REF_FRAME>TEME</REF_FRAME><TIME_SYSTEM>UTC</TIME_SYSTEM><MEAN_ELEMENT_THEORY>SGP4</MEAN_ELEMENT_THEORY></metadata><data><meanElements><EPOCH>2025-01-29T02:58:33.382272</EPOCH><MEAN_MOTION>13.13470751</MEAN_MOTION><ECCENTRICITY>.0001955</ECCENTRICITY><INCLINATION>87.8885</INCLINATION><RA_OF_ASC_NODE>60.4708</RA_OF_ASC_NODE><ARG_OF_PERICENTER>90.0612</ARG_OF_PERICENTER><MEAN_ANOMALY>270.0741</MEAN_ANOMALY></meanElements><tleParameters><EPHEMERIS_TYPE>0</EPHEMERIS_TYPE><CLASSIFICATION_TYPE>U</CLASSIFICATION_TYPE><NORAD_CAT_ID>49203</NORAD_CAT_ID><ELEMENT_SET_NO>999</ELEMENT_SET_NO><REV_AT_EPOCH>16604</REV_AT_EPOCH><BSTAR>-.86269E-4</BSTAR><MEAN_MOTION_DOT>-.19E-6</MEAN_MOTION_DOT><MEAN_MOTION_DDOT>0</MEAN_MOTION_DDOT></tleParameters></data></segment></body></omm>
<omm id="CCSDS_OMM_VERS" version="2.0">
<header><CREATION_DATE/><ORIGINATOR/></header><body><segment><metadata><OBJECT_NAME>ONEWEB-0338</OBJECT_NAME><OBJECT_ID>2021-083U</OBJECT_ID><CENTER_NAME>EARTH</CENTER_NAME><REF_FRAME>TEME</REF_FRAME><TIME_SYSTEM>UTC</TIME_SYSTEM><MEAN_ELEMENT_THEORY>SGP4</MEAN_ELEMENT_THEORY></metadata><data><meanElements><EPOCH>2025-01-29T00:45:31.291488</EPOCH><MEAN_MOTION>13.20772158</MEAN_MOTION><ECCENTRICITY>.0001912</ECCENTRICITY><INCLINATION>87.9262</INCLINATION><RA_OF_ASC_NODE>14.7683</RA_OF_ASC_NODE><ARG_OF_PERICENTER>98.4273</ARG_OF_PERICENTER><MEAN_ANOMALY>261.7078</MEAN_ANOMALY></meanElements><tleParameters><EPHEMERIS_TYPE>0</EPHEMERIS_TYPE><CLASSIFICATION_TYPE>U</CLASSIFICATION_TYPE><NORAD_CAT_ID>49204</NORAD_CAT_ID><ELEMENT_SET_NO>999</ELEMENT_SET_NO><REV_AT_EPOCH>17156</REV_AT_EPOCH><BSTAR>-.22741E-4</BSTAR><MEAN_MOTION_DOT>.4E-7</MEAN_MOTION_DOT><MEAN_MOTION_DDOT>0</MEAN_MOTION_DDOT></tleParameters></data></segment></body></omm>
<omm id="CCSDS_OMM_VERS" version="2.0">
<header><CREATION_DATE/><ORIGINATOR/></header><body><segment><metadata><OBJECT_NAME>ONEWEB-0339</OBJECT_NAME><OBJECT_ID>2021-083V</OBJECT_ID><CENTER_NAME>EARTH</CENTER_NAME><REF_FRAME>TEME</REF_FRAME><TIME_SYSTEM>UTC</TIME_SYSTEM><MEAN_ELEMENT_THEORY>SGP4</MEAN_ELEMENT_THEORY></metadata><data><meanElements><EPOCH>2025-01-29T03:14:45.244896</EPOCH><MEAN_MOTION>13.13470609</MEAN_MOTION><ECCENTRICITY>.0002006</ECCENTRICITY><INCLINATION>87.8885</INCLINATION><RA_OF_ASC_NODE>60.4599</RA_OF_ASC_NODE><ARG_OF_PERICENTER>93.7751</ARG_OF_PERICENTER><MEAN_ANOMALY>266.3608</MEAN_ANOMALY></meanElements><tleParameters><EPHEMERIS_TYPE>0</EPHEMERIS_TYPE><CLASSIFICATION_TYPE>U</CLASSIFICATION_TYPE><NORAD_CAT_ID>49205</NORAD_CAT_ID><ELEMENT_SET_NO>999</ELEMENT_SET_NO><REV_AT_EPOCH>16602</REV_AT_EPOCH><BSTAR>.67095E-3</BSTAR><MEAN_MOTION_DOT>.258E-5</MEAN_MOTION_DOT><MEAN_MOTION_DDOT>0</MEAN_MOTION_DDOT></tleParameters></data></segment></body></omm>

</ndm>
